{
  "type": "FeatureCollection",
  "features": [
    {
      "type": "Feature",
      "properties": {
        "norad_id": 34560,
        "name": "COSMOS 2251 DEB",
        "group": "cosmos-2251-debris",
        "lat": -12.49196408471211,
        "lon": 110.26429990594451,
        "alt_km": 665.3252438343734,
        "timestamp": "2025-12-27T05:29:39.598964+00:00",
        "meta_object_name": "COSMOS 2251 DEB",
        "meta_object_id": "1993-036UW",
        "meta_epoch": "2025-12-26T17:04:38.801280",
        "meta_mean_motion": 14.72497641,
        "meta_eccentricity": 0.00135494,
        "meta_inclination": 74.0169,
        "meta_ra_of_asc_node": 114.9128,
        "meta_arg_of_pericenter": 199.4977,
        "meta_mean_anomaly": 286.084,
        "meta_ephemeris_type": 0,
        "meta_classification_type": "U",
        "meta_norad_cat_id": 34560,
        "meta_element_set_no": 999,
        "meta_rev_at_epoch": 88457,
        "meta_bstar": 0.0022819052,
        "meta_mean_motion_dot": 0.0001451,
        "meta_mean_motion_ddot": 0,
        "tle_line1": "1 34560U 93036UW  25360.71156020  .00014510  00000+0  22819-2 0  9991",
        "tle_line2": "2 34560  74.0169 114.9128 0013549 199.4977 286.0840 14.72497641884576"
      },
      "geometry": {
        "type": "Point",
        "coordinates": [
          110.26429990594451,
          -12.49196408471211
        ]
      }
    },
    {
      "type": "Feature",
      "properties": {
        "norad_id": 34563,
        "name": "COSMOS 2251 DEB",
        "group": "cosmos-2251-debris",
        "lat": -26.969088167549135,
        "lon": 5.031255834506945,
        "alt_km": 737.6252504056283,
        "timestamp": "2025-12-27T05:29:39.598974+00:00",
        "meta_object_name": "COSMOS 2251 DEB",
        "meta_object_id": "1993-036UZ",
        "meta_epoch": "2025-12-26T18:37:48.023328",
        "meta_mean_motion": 14.46553942,
        "meta_eccentricity": 0.00139023,
        "meta_inclination": 74.0365,
        "meta_ra_of_asc_node": 177.5011,
        "meta_arg_of_pericenter": 270.8505,
        "meta_mean_anomaly": 100.91,
        "meta_ephemeris_type": 0,
        "meta_classification_type": "U",
        "meta_norad_cat_id": 34563,
        "meta_element_set_no": 999,
        "meta_rev_at_epoch": 88400,
        "meta_bstar": 0.00049252066,
        "meta_mean_motion_dot": 1.75e-05,
        "meta_mean_motion_ddot": 0,
        "tle_line1": "1 34563U 93036UZ  25360.77625027  .00001750  00000+0  49252-3 0  9991",
        "tle_line2": "2 34563  74.0365 177.5011 0013902 270.8505 100.9100 14.46553942884006"
      },
      "geometry": {
        "type": "Point",
        "coordinates": [
          5.031255834506945,
          -26.969088167549135
        ]
      }
    },
    {
      "type": "Feature",
      "properties": {
        "norad_id": 34564,
        "name": "COSMOS 2251 DEB",
        "group": "cosmos-2251-debris",
        "lat": 41.33236919390494,
        "lon": -134.20822936467064,
        "alt_km": 752.5410572086303,
        "timestamp": "2025-12-27T05:29:39.598984+00:00",
        "meta_object_name": "COSMOS 2251 DEB",
        "meta_object_id": "1993-036VA",
        "meta_epoch": "2025-12-26T21:03:32.956128",
        "meta_mean_motion": 14.40712431,
        "meta_eccentricity": 0.0019493,
        "meta_inclination": 74.031,
        "meta_ra_of_asc_node": 211.855,
        "meta_arg_of_pericenter": 313.8248,
        "meta_mean_anomaly": 67.2563,
        "meta_ephemeris_type": 0,
        "meta_classification_type": "U",
        "meta_norad_cat_id": 34564,
        "meta_element_set_no": 999,
        "meta_rev_at_epoch": 88210,
        "meta_bstar": 0.0002286667,
        "meta_mean_motion_dot": 7.06e-06,
        "meta_mean_motion_ddot": 0,
        "tle_line1": "1 34564U 93036VA  25360.87746477  .00000706  00000+0  22867-3 0  9999",
        "tle_line2": "2 34564  74.0310 211.8550 0019493 313.8248  67.2563 14.40712431882101"
      },
      "geometry": {
        "type": "Point",
        "coordinates": [
          -134.20822936467064,
          41.33236919390494
        ]
      }
    },
    {
      "type": "Feature",
      "properties": {
        "norad_id": 34567,
        "name": "COSMOS 2251 DEB",
        "group": "cosmos-2251-debris",
        "lat": -55.59174056004188,
        "lon": 106.0083332127592,
        "alt_km": 826.4967676810811,
        "timestamp": "2025-12-27T05:29:39.598994+00:00",
        "meta_object_name": "COSMOS 2251 DEB",
        "meta_object_id": "1993-036VD",
        "meta_epoch": "2025-12-26T18:30:40.311360",
        "meta_mean_motion": 14.24032429,
        "meta_eccentricity": 0.00740336,
        "meta_inclination": 74.0413,
        "meta_ra_of_asc_node": 131.5262,
        "meta_arg_of_pericenter": 202.7595,
        "meta_mean_anomaly": 272.239,
        "meta_ephemeris_type": 0,
        "meta_classification_type": "U",
        "meta_norad_cat_id": 34567,
        "meta_element_set_no": 999,
        "meta_rev_at_epoch": 87324,
        "meta_bstar": 0.00027646321,
        "meta_mean_motion_dot": 6.28e-06,
        "meta_mean_motion_ddot": 0,
        "tle_line1": "1 34567U 93036VD  25360.77129990  .00000628  00000+0  27646-3 0  9999",
        "tle_line2": "2 34567  74.0413 131.5262 0074033 202.7595 272.2390 14.24032429873243"
      },
      "geometry": {
        "type": "Point",
        "coordinates": [
          106.0083332127592,
          -55.59174056004188
        ]
      }
    },
    {
      "type": "Feature",
      "properties": {
        "norad_id": 34569,
        "name": "COSMOS 2251 DEB",
        "group": "cosmos-2251-debris",
        "lat": 32.16155911395244,
        "lon": -18.46518606432658,
        "alt_km": 904.044098493915,
        "timestamp": "2025-12-27T05:29:39.599024+00:00",
        "meta_object_name": "COSMOS 2251 DEB",
        "meta_object_id": "1993-036VF",
        "meta_epoch": "2025-12-26T13:58:05.758176",
        "meta_mean_motion": 14.24786035,
        "meta_eccentricity": 0.015791,
        "meta_inclination": 73.9894,
        "meta_ra_of_asc_node": 173.1059,
        "meta_arg_of_pericenter": 358.3355,
        "meta_mean_anomaly": 70.1274,
        "meta_ephemeris_type": 0,
        "meta_classification_type": "U",
        "meta_norad_cat_id": 34569,
        "meta_element_set_no": 999,
        "meta_rev_at_epoch": 87165,
        "meta_bstar": 0.00046481,
        "meta_mean_motion_dot": 1.207e-05,
        "meta_mean_motion_ddot": 0,
        "tle_line1": "1 34569U 93036VF  25360.58201109  .00001207  00000+0  46481-3 0  9995",
        "tle_line2": "2 34569  73.9894 173.1059 0157910 358.3355  70.1274 14.24786035871658"
      },
      "geometry": {
        "type": "Point",
        "coordinates": [
          -18.46518606432658,
          32.16155911395244
        ]
      }
    },
    {
      "type": "Feature",
      "properties": {
        "norad_id": 34570,
        "name": "COSMOS 2251 DEB",
        "group": "cosmos-2251-debris",
        "lat": -35.99983245613925,
        "lon": 25.15231163386797,
        "alt_km": 1013.1763576776102,
        "timestamp": "2025-12-27T05:29:39.599034+00:00",
        "meta_object_name": "COSMOS 2251 DEB",
        "meta_object_id": "1993-036VG",
        "meta_epoch": "2025-12-27T00:02:12.355296",
        "meta_mean_motion": 13.99844871,
        "meta_eccentricity": 0.0190326,
        "meta_inclination": 73.9555,
        "meta_ra_of_asc_node": 193.4797,
        "meta_arg_of_pericenter": 72.7711,
        "meta_mean_anomaly": 78.0663,
        "meta_ephemeris_type": 0,
        "meta_classification_type": "U",
        "meta_norad_cat_id": 34570,
        "meta_element_set_no": 999,
        "meta_rev_at_epoch": 85800,
        "meta_bstar": 0.00053484766,
        "meta_mean_motion_dot": 8.94e-06,
        "meta_mean_motion_ddot": 0,
        "tle_line1": "1 34570U 93036VG  25361.00153189  .00000894  00000+0  53485-3 0  9992",
        "tle_line2": "2 34570  73.9555 193.4797 0190326  72.7711  78.0663 13.99844871858006"
      },
      "geometry": {
        "type": "Point",
        "coordinates": [
          25.15231163386797,
          -35.99983245613925
        ]
      }
    },
    {
      "type": "Feature",
      "properties": {
        "norad_id": 34571,
        "name": "COSMOS 2251 DEB",
        "group": "cosmos-2251-debris",
        "lat": 68.57197328240471,
        "lon": -71.54007452102769,
        "alt_km": 715.4806877500396,
        "timestamp": "2025-12-27T05:29:39.599045+00:00",
        "meta_object_name": "COSMOS 2251 DEB",
        "meta_object_id": "1993-036VH",
        "meta_epoch": "2025-12-24T20:40:26.923008",
        "meta_mean_motion": 14.49017935,
        "meta_eccentricity": 0.0064888,
        "meta_inclination": 74.0401,
        "meta_ra_of_asc_node": 159.7142,
        "meta_arg_of_pericenter": 192.1385,
        "meta_mean_anomaly": 167.8215,
        "meta_ephemeris_type": 0,
        "meta_classification_type": "U",
        "meta_norad_cat_id": 34571,
        "meta_element_set_no": 999,
        "meta_rev_at_epoch": 87469,
        "meta_bstar": 0.003002,
        "meta_mean_motion_dot": 0.00011689,
        "meta_mean_motion_ddot": 0,
        "tle_line1": "1 34571U 93036VH  25358.86142272  .00011689  00000+0  30020-2 0  9997",
        "tle_line2": "2 34571  74.0401 159.7142 0064888 192.1385 167.8215 14.49017935874697"
      },
      "geometry": {
        "type": "Point",
        "coordinates": [
          -71.54007452102769,
          68.57197328240471
        ]
      }
    }
  ]
}